<?xml version="1.0" encoding="UTF-8"?>
<ndm xmlns:xsi="http://www.w3.org/2001/XMLSchema-instance" xsi:noNamespaceSchemaLocation="https://sanaregistry.org/r/ndmxml_unqualified/ndmxml-2.0.0-master-2.0.xsd">
<omm id="CCSDS_OMM_VERS" version="2.0">
<header><CREATION_DATE/><ORIGINATOR/></header><body><segment><metadata><OBJECT_NAME>ONEWEB-0371</OBJECT_NAME><OBJECT_ID>2021-090U</OBJECT_ID><CENTER_NAME>EARTH</CENTER_NAME><REF_FRAME>TEME</REF_FRAME><TIME_SYSTEM>UTC</TIME_SYSTEM><MEAN_ELEMENT_THEORY>SGP4</MEAN_ELEMENT_THEORY></metadata><data><meanElements><EPOCH>2025-03-13T10:49:45.765696</EPOCH><MEAN_MOTION>13.19726065</MEAN_MOTION><ECCENTRICITY>.0001992</ECCENTRICITY><INCLINATION>87.9209</INCLINATION><RA_OF_ASC_NODE>36.5338</RA_OF_ASC_NODE><ARG_OF_PERICENTER>78.7896</ARG_OF_PERICENTER><MEAN_ANOMALY>281.3461</MEAN_ANOMALY></meanElements><tleParameters><EPHEMERIS_TYPE>0</EPHEMERIS_TYPE><CLASSIFICATION_TYPE>U</CLASSIFICATION_TYPE><NORAD_CAT_ID>49297</NORAD_CAT_ID><ELEMENT_SET_NO>999</ELEMENT_SET_NO><REV_AT_EPOCH>16568</REV_AT_EPOCH><BSTAR>.19657E-3</BSTAR><MEAN_MOTION_DOT>.92E-6</MEAN_MOTION_DOT><MEAN_MOTION_DDOT>0</MEAN_MOTION_DDOT></tleParameters></data></segment></body></omm>
<omm id="CCSDS_OMM_VERS" version="2.0">
<header><CREATION_DATE/><ORIGINATOR/></header><body><segment><metadata><OBJECT_NAME>ONEWEB-0372</OBJECT_NAME><OBJECT_ID>2021-090V</OBJECT_ID><CENTER_NAME>EARTH</CENTER_NAME><REF_FRAME>TEME</REF_FRAME><TIME_SYSTEM>UTC</TIME_SYSTEM><MEAN_ELEMENT_THEORY>SGP4</MEAN_ELEMENT_THEORY></metadata><data><meanElements><EPOCH>2025-03-13T13:26:28.981824</EPOCH><MEAN_MOTION>13.20767478</MEAN_MOTION><ECCENTRICITY>.0002029</ECCENTRICITY><INCLINATION>87.9335</INCLINATION><RA_OF_ASC_NODE>6.1190</RA_OF_ASC_NODE><ARG_OF_PERICENTER>78.9122</ARG_OF_PERICENTER><MEAN_ANOMALY>281.2240</MEAN_ANOMALY></meanElements><tleParameters><EPHEMERIS_TYPE>0</EPHEMERIS_TYPE><CLASSIFICATION_TYPE>U</CLASSIFICATION_TYPE><NORAD_CAT_ID>49298</NORAD_CAT_ID><ELEMENT_SET_NO>999</ELEMENT_SET_NO><REV_AT_EPOCH>16903</REV_AT_EPOCH><BSTAR>.16193E-2</BSTAR><MEAN_MOTION_DOT>.671E-5</MEAN_MOTION_DOT><MEAN_MOTION_DDOT>0</MEAN_MOTION_DDOT></tleParameters></data></segment></body></omm>
<omm id="CCSDS_OMM_VERS" version="2.0">
<header><CREATION_DATE/><ORIGINATOR/></header><body><segment><metadata><OBJECT_NAME>ONEWEB-0373</OBJECT_NAME><OBJECT_ID>2021-090W</OBJECT_ID><CENTER_NAME>EARTH</CENTER_NAME><REF_FRAME>TEME</REF_FRAME><TIME_SYSTEM>UTC</TIME_SYSTEM><MEAN_ELEMENT_THEORY>SGP4</MEAN_ELEMENT_THEORY></metadata><data><meanElements><EPOCH>2025-03-13T08:38:02.806944</EPOCH><MEAN_MOTION>13.20772966</MEAN_MOTION><ECCENTRICITY>.0001811</ECCENTRICITY><INCLINATION>87.9330</INCLINATION><RA_OF_ASC_NODE>6.1711</RA_OF_ASC_NODE><ARG_OF_PERICENTER>86.7825</ARG_OF_PERICENTER><MEAN_ANOMALY>273.3515</MEAN_ANOMALY></meanElements><tleParameters><EPHEMERIS_TYPE>0</EPHEMERIS_TYPE><CLASSIFICATION_TYPE>U</CLASSIFICATION_TYPE><NORAD_CAT_ID>49299</NORAD_CAT_ID><ELEMENT_SET_NO>999</ELEMENT_SET_NO><REV_AT_EPOCH>17019</REV_AT_EPOCH><BSTAR>.25451E-3</BSTAR><MEAN_MOTION_DOT>.116E-5</MEAN_MOTION_DOT><MEAN_MOTION_DDOT>0</MEAN_MOTION_DDOT></tleParameters></data></segment></body></omm>
<omm id="CCSDS_OMM_VERS" version="2.0">
<header><CREATION_DATE/><ORIGINATOR/></header><body><segment><metadata><OBJECT_NAME>ONEWEB-0374</OBJECT_NAME><OBJECT_ID>2021-090X</OBJECT_ID><CENTER_NAME>EARTH</CENTER_NAME><REF_FRAME>TEME</REF_FRAME><TIME_SYSTEM>UTC</TIME_SYSTEM><MEAN_ELEMENT_THEORY>SGP4</MEAN_ELEMENT_THEORY></metadata><data><meanElements><EPOCH>2025-03-13T14:32:49.869600</EPOCH><MEAN_MOTION>13.14501541</MEAN_MOTION><ECCENTRICITY>.000203</ECCENTRICITY><INCLINATION>87.9070</INCLINATION><RA_OF_ASC_NODE>21.2795</RA_OF_ASC_NODE><ARG_OF_PERICENTER>96.7269</ARG_OF_PERICENTER><MEAN_ANOMALY>263.4092</MEAN_ANOMALY></meanElements><tleParameters><EPHEMERIS_TYPE>0</EPHEMERIS_TYPE><CLASSIFICATION_TYPE>U</CLASSIFICATION_TYPE><NORAD_CAT_ID>49300</NORAD_CAT_ID><ELEMENT_SET_NO>999</ELEMENT_SET_NO><REV_AT_EPOCH>16705</REV_AT_EPOCH><BSTAR>.59076E-3</BSTAR><MEAN_MOTION_DOT>.232E-5</MEAN_MOTION_DOT><MEAN_MOTION_DDOT>0</MEAN_MOTION_DDOT></tleParameters></data></segment></body></omm>
<omm id="CCSDS_OMM_VERS" version="2.0">
<header><CREATION_DATE/><ORIGINATOR/></header><body><segment><metadata><OBJECT_NAME>ONEWEB-0375</OBJECT_NAME><OBJECT_ID>2021-090Y</OBJECT_ID><CENTER_NAME>EARTH</CENTER_NAME><REF_FRAME>TEME</REF_FRAME><TIME_SYSTEM>UTC</TIME_SYSTEM><MEAN_ELEMENT_THEORY>SGP4</MEAN_ELEMENT_THEORY></metadata><data><meanElements><EPOCH>2025-03-13T13:47:06.753408</EPOCH><MEAN_MOTION>13.20772190</MEAN_MOTION><ECCENTRICITY>.0001527</ECCENTRICITY><INCLINATION>87.9332</INCLINATION><RA_OF_ASC_NODE>6.1060</RA_OF_ASC_NODE><ARG_OF_PERICENTER>99.4276</ARG_OF_PERICENTER><MEAN_ANOMALY>260.7030</MEAN_ANOMALY></meanElements><tleParameters><EPHEMERIS_TYPE>0</EPHEMERIS_TYPE><CLASSIFICATION_TYPE>U</CLASSIFICATION_TYPE><NORAD_CAT_ID>49301</NORAD_CAT_ID><ELEMENT_SET_NO>999</ELEMENT_SET_NO><REV_AT_EPOCH>16972</REV_AT_EPOCH><BSTAR>-.26877E-4</BSTAR><MEAN_MOTION_DOT>.2E-7</MEAN_MOTION_DOT><MEAN_MOTION_DDOT>0</MEAN_MOTION_DDOT></tleParameters></data></segment></body></omm>
<omm id="CCSDS_OMM_VERS" version="2.0">
<header><CREATION_DATE/><ORIGINATOR/></header><body><segment><metadata><OBJECT_NAME>ONEWEB-0376</OBJECT_NAME><OBJECT_ID>2021-090Z</OBJECT_ID><CENTER_NAME>EARTH</CENTER_NAME><REF_FRAME>TEME</REF_FRAME><TIME_SYSTEM>UTC</TIME_SYSTEM><MEAN_ELEMENT_THEORY>SGP4</MEAN_ELEMENT_THEORY></metadata><data><meanElements><EPOCH>2025-03-13T14:25:50.701728</EPOCH><MEAN_MOTION>13.19725588</MEAN_MOTION><ECCENTRICITY>.0002172</ECCENTRICITY><INCLINATION>87.9202</INCLINATION><RA_OF_ASC_NODE>36.4949</RA_OF_ASC_NODE><ARG_OF_PERICENTER>79.6428</ARG_OF_PERICENTER><MEAN_ANOMALY>280.4950</MEAN_ANOMALY></meanElements><tleParameters><EPHEMERIS_TYPE>0</EPHEMERIS_TYPE><CLASSIFICATION_TYPE>U</CLASSIFICATION_TYPE><NORAD_CAT_ID>49302</NORAD_CAT_ID><ELEMENT_SET_NO>999</ELEMENT_SET_NO><REV_AT_EPOCH>16570</REV_AT_EPOCH><BSTAR>.22121E-3</BSTAR><MEAN_MOTION_DOT>.102E-5</MEAN_MOTION_DOT><MEAN_MOTION_DDOT>0</MEAN_MOTION_DDOT></tleParameters></data></segment></body></omm>
<omm id="CCSDS_OMM_VERS" version="2.0">
<header><CREATION_DATE/><ORIGINATOR/></header><body><segment><metadata><OBJECT_NAME>ONEWEB-0377</OBJECT_NAME><OBJECT_ID>2021-090AA</OBJECT_ID><CENTER_NAME>EARTH</CENTER_NAME><REF_FRAME>TEME</REF_FRAME><TIME_SYSTEM>UTC</TIME_SYSTEM><MEAN_ELEMENT_THEORY>SGP4</MEAN_ELEMENT_THEORY></metadata><data><meanElements><EPOCH>2025-03-13T13:26:52.351296</EPOCH><MEAN_MOTION>13.20771230</MEAN_MOTION><ECCENTRICITY>.0001598</ECCENTRICITY><INCLINATION>87.9333</INCLINATION><RA_OF_ASC_NODE>6.1014</RA_OF_ASC_NODE><ARG_OF_PERICENTER>75.0930</ARG_OF_PERICENTER><MEAN_ANOMALY>285.0380</MEAN_ANOMALY></meanElements><tleParameters><EPHEMERIS_TYPE>0</EPHEMERIS_TYPE><CLASSIFICATION_TYPE>U</CLASSIFICATION_TYPE><NORAD_CAT_ID>49303</NORAD_CAT_ID><ELEMENT_SET_NO>999</ELEMENT_SET_NO><REV_AT_EPOCH>16971</REV_AT_EPOCH><BSTAR>.1401E-4</BSTAR><MEAN_MOTION_DOT>.19E-6</MEAN_MOTION_DOT><MEAN_MOTION_DDOT>0</MEAN_MOTION_DDOT></tleParameters></data></segment></body></omm>
<omm id="CCSDS_OMM_VERS" version="2.0">
<header><CREATION_DATE/><ORIGINATOR/></header><body><segment><metadata><OBJECT_NAME>ONEWEB-0378</OBJECT_NAME><OBJECT_ID>2021-090AB</OBJECT_ID><CENTER_NAME>EARTH</CENTER_NAME><REF_FRAME>TEME</REF_FRAME><TIME_SYSTEM>UTC</TIME_SYSTEM><MEAN_ELEMENT_THEORY>SGP4</MEAN_ELEMENT_THEORY></metadata><data><meanElements><EPOCH>2025-03-13T08:31:25.068864</EPOCH><MEAN_MOTION>13.20773338</MEAN_MOTION><ECCENTRICITY>.000181</ECCENTRICITY><INCLINATION>87.9334</INCLINATION><RA_OF_ASC_NODE>6.1484</RA_OF_ASC_NODE><ARG_OF_PERICENTER>83.2906</ARG_OF_PERICENTER><MEAN_ANOMALY>276.8433</MEAN_ANOMALY></meanElements><tleParameters><EPHEMERIS_TYPE>0</EPHEMERIS_TYPE><CLASSIFICATION_TYPE>U</CLASSIFICATION_TYPE><NORAD_CAT_ID>49304</NORAD_CAT_ID><ELEMENT_SET_NO>999</ELEMENT_SET_NO><REV_AT_EPOCH>16895</REV_AT_EPOCH><BSTAR>.21491E-3</BSTAR><MEAN_MOTION_DOT>.1E-5</MEAN_MOTION_DOT><MEAN_MOTION_DDOT>0</MEAN_MOTION_DDOT></tleParameters></data></segment></body></omm>

</ndm>
