ONEWEB-0371             
1 49297U 21090U   25072.45122414  .00000092  00000+0  19657-3 0  9993
2 49297  87.9209  36.5338 0001992  78.7896 281.3461 13.19726065165683
ONEWEB-0372             
1 49298U 21090V   25072.56005766  .00000671  00000+0  16193-2 0  9990
2 49298  87.9335   6.1190 0002029  78.9122 281.2240 13.20767478169031
ONEWEB-0373             
1 49299U 21090W   25072.35975471  .00000116  00000+0  25451-3 0  9999
2 49299  87.9330   6.1711 0001811  86.7825 273.3515 13.20772966170195
ONEWEB-0374             
1 49300U 21090X   25072.60613275  .00000232  00000+0  59076-3 0  9990
2 49300  87.9070  21.2795 0002030  96.7269 263.4092 13.14501541167059
ONEWEB-0375             
1 49301U 21090Y   25072.57438372  .00000002  00000+0 -26877-4 0  9990
2 49301  87.9332   6.1060 0001527  99.4276 260.7030 13.20772190169721
ONEWEB-0376             
1 49302U 21090Z   25072.60128127  .00000102  00000+0  22121-3 0  9996
2 49302  87.9202  36.4949 0002172  79.6428 280.4950 13.19725588165707
ONEWEB-0377             
1 49303U 21090AA  25072.56032814  .00000019  00000+0  14010-4 0  9995
2 49303  87.9333   6.1014 0001598  75.0930 285.0380 13.20771230169719
ONEWEB-0378             
1 49304U 21090AB  25072.35515126  .00000100  00000+0  21491-3 0  9996
2 49304  87.9334   6.1484 0001810  83.2906 276.8433 13.20773338168956
